NORAD_CAT_ID,OBJECT_NAME,OBJECT_TYPE,EPOCH,MEAN_MOTION,ECCENTRICITY,INCLINATION,RA_OF_ASC_NODE,ARG_OF_PERICENTER,MEAN_ANOMALY,BSTAR,MEAN_MOTION_DOT,MEAN_MOTION_DDOT,TLE_LINE0,TLE_LINE1,TLE_LINE2,SEMIMAJOR_AXIS,PERIOD,APOGEE,PERIGEE,DECAYED
52376.0,STARLINK-3767,PAYLOAD,2024-08-09 12:41:50,15.08847886,0.0001887,53.2154,260.0936,73.7809,286.339,0.00012629,1.723e-05,0.0,0 STARLINK-3767,1 52376U 22045AX  24222.52905833  .00001723  00000-0  12629-3 0  9999,2 52376  53.2154 260.0936 0001887  73.7809 286.3390 15.08847886128792,6917.856,95.437,541.027,538.416,0.0
52376.0,STARLINK-3767,PAYLOAD,2024-08-09 19:03:23,15.08841596,0.0001832,53.216,258.9018,72.9391,287.1802,2.1013e-05,4.6e-07,0.0,0 STARLINK-3767,1 52376U 22045AX  24222.79401976  .00000046  00000-0  21013-4 0  9992,2 52376  53.2160 258.9018 0001832  72.9391 287.1802 15.08841596128837,6917.876,95.437,541.008,538.473,0.0
52376.0,STARLINK-3767,PAYLOAD,2024-08-10 03:00:19,15.08832075,0.0001764,53.2165,257.4204,83.4691,276.6502,-0.00012622,-2.296e-05,0.0,0 STARLINK-3767,1 52376U 22045AX  24223.12522506 -.00002296  00000-0 -12622-3 0  9999,2 52376  53.2165 257.4204 0001764  83.4691 276.6502 15.08832075128884,6917.905,95.438,540.99,538.549,0.0
52376.0,STARLINK-3767,PAYLOAD,2024-08-10 07:46:28,15.08837754,0.0001984,53.2163,256.5273,89.4406,270.6813,-2.8809e-05,-7.47e-06,0.0,0 STARLINK-3767,1 52376U 22045AX  24223.32394373 -.00000747  00000-0 -28809-4 0  9994,2 52376  53.2163 256.5273 0001984  89.4406 270.6813 15.08837754128914,6917.887,95.438,541.125,538.38,0.0
52376.0,STARLINK-3767,PAYLOAD,2024-08-11 02:51:06,15.0883985,0.0001977,53.2168,252.9591,91.2567,268.8652,0.00011493,1.541e-05,0.0,0 STARLINK-3767,1 52376U 22045AX  24224.11882397  .00001541  00000-0  11493-3 0  9991,2 52376  53.2168 252.9591 0001977  91.2567 268.8652 15.08839850129036,6917.881,95.438,541.114,538.378,0.0
52376.0,STARLINK-3767,PAYLOAD,2024-08-11 18:44:57,15.08843878,0.0001811,53.2156,249.9888,99.6432,260.4765,0.00023717,3.489e-05,0.0,0 STARLINK-3767,1 52376U 22045AX  24224.78122325  .00003489  00000-0  23717-3 0  9997,2 52376  53.2156 249.9888 0001811  99.6432 260.4765 15.08843878129137,6917.869,95.437,540.986,538.481,0.0
52376.0,STARLINK-3767,PAYLOAD,2024-08-12 09:03:25,15.08847693,0.0001879,53.2164,247.3085,92.0869,268.0339,0.00020694,3.008e-05,0.0,0 STARLINK-3767,1 52376U 22045AX  24225.37738073  .00003008  00000-0  20694-3 0  9994,2 52376  53.2164 247.3085 0001879  92.0869 268.0339 15.08847693129222,6917.857,95.437,541.022,538.422,0.0
52376.0,STARLINK-3767,PAYLOAD,2024-08-12 18:35:44,15.08858771,0.00019,53.217,245.5241,86.7765,273.3445,0.00038583,5.861e-05,0.0,0 STARLINK-3767,1 52376U 22045AX  24225.77481498  .00005861  00000-0  38583-3 0  9999,2 52376  53.2170 245.5241 0001900  86.7765 273.3445 15.08858771129285,6917.823,95.436,541.002,538.374,0.0
52376.0,STARLINK-3767,PAYLOAD,2024-08-13 05:43:26,15.08838309,0.0001492,53.2146,243.4448,92.3373,267.779,-7.1875e-05,-1.432e-05,0.0,0 STARLINK-3767,1 52376U 22045AX  24226.23849848 -.00001432  00000-0 -71875-4 0  9992,2 52376  53.2146 243.4448 0001492  92.3373 267.7790 15.08838309129351,6917.886,95.438,540.783,538.718,0.0
52376.0,STARLINK-3767,PAYLOAD,2024-08-13 10:29:35,15.08845382,0.0001647,53.2149,242.552,88.9896,271.1284,7.8825e-05,9.67e-06,0.0,0 STARLINK-3767,1 52376U 22045AX  24226.43721662  .00000967  00000-0  78825-4 0  9999,2 52376  53.2149 242.5520 0001647  88.9896 271.1284 15.08845382129387,6917.864,95.437,540.868,538.59,0.0
52376.0,STARLINK-3767,PAYLOAD,2024-08-13 18:26:31,15.08835756,0.0001654,53.2173,241.06,91.341,268.7771,-0.00014631,-2.616e-05,0.0,0 STARLINK-3767,1 52376U 22045AX  24226.76841988 -.00002616  00000-0 -14631-3 0  9998,2 52376  53.2173 241.0600 0001654  91.3410 268.7771 15.08835756129438,6917.893,95.438,540.903,538.614,0.0
52376.0,STARLINK-3767,PAYLOAD,2024-08-14 07:09:37,15.08829038,0.0001695,53.216,238.6833,93.5942,266.5244,-0.00014937,-2.664e-05,0.0,0 STARLINK-3767,1 52376U 22045AX  24227.29834758 -.00002664  00000-0 -14937-3 0  9996,2 52376  53.2160 238.6833 0001695  93.5942 266.5244 15.08829038129519,6917.914,95.438,540.951,538.606,0.0
52376.0,STARLINK-3767,PAYLOAD,2024-08-14 18:17:19,15.08828615,0.0001724,53.2164,236.6019,95.6793,264.4396,-3.6431e-05,-8.68e-06,0.0,0 STARLINK-3767,1 52376U 22045AX  24227.76203198 -.00000868  00000-0 -36431-4 0  9994,2 52376  53.2164 236.6019 0001724  95.6793 264.4396 15.08828615129589,6917.915,95.438,540.973,538.588,0.0
52376.0,STARLINK-3767,PAYLOAD,2024-08-15 07:00:24,15.08837902,0.0001537,53.2149,234.2241,91.654,268.4628,0.00028712,4.284e-05,0.0,0 STARLINK-3767,1 52376U 22045AX  24228.29195289  .00004284  00000-0  28712-3 0  9990,2 52376  53.2149 234.2241 0001537  91.6540 268.4628 15.08837902129661,6917.887,95.438,540.815,538.689,0.0
52376.0,STARLINK-3767,PAYLOAD,2024-08-16 06:51:11,15.08849663,0.0001459,53.2149,229.7631,91.2349,268.881,0.00042379,6.465e-05,0.0,0 STARLINK-3767,1 52376U 22045AX  24229.28555153  .00006465  00000-0  42379-3 0  9998,2 52376  53.2149 229.7631 0001459  91.2349 268.8810 15.08849663129810,6917.851,95.437,540.725,538.707,0.0
52376.0,STARLINK-3767,PAYLOAD,2024-08-17 05:06:35,15.08844247,0.0001489,53.2149,225.6011,90.9814,269.1348,9.2307e-05,1.182e-05,0.0,0 STARLINK-3767,1 52376U 22045AX  24230.21290996  .00001182  00000-0  92307-4 0  9992,2 52376  53.2149 225.6011 0001489  90.9814 269.1348 15.08844247129951,6917.867,95.437,540.762,538.702,0.0
52376.0,STARLINK-3767,PAYLOAD,2024-08-18 04:57:22,15.08837236,0.000154,53.2167,221.141,98.4322,261.6845,1.9589e-05,2.4e-07,0.0,0 STARLINK-3767,1 52376U 22045AX  24231.20651587  .00000024  00000-0  19589-4 0  9994,2 52376  53.2167 221.1410 0001540  98.4322 261.6845 15.08837236130108,6917.889,95.438,540.819,538.688,0.0
52376.0,STARLINK-3767,PAYLOAD,2024-08-18 06:32:46,15.08836893,0.0001504,53.2166,220.8441,95.1502,264.9661,7.0443e-06,-1.76e-06,0.0,0 STARLINK-3767,1 52376U 22045AX  24231.27275623 -.00000176  00000-0  70443-5 0  9990,2 52376  53.2166 220.8441 0001504  95.1502 264.9661 15.08836893130112,6917.89,95.438,540.795,538.714,0.0
52376.0,STARLINK-3767,PAYLOAD,2024-08-19 09:34:19,15.08842236,0.0001422,53.2161,215.7882,89.4877,270.6278,8.7857e-05,1.111e-05,0.0,0 STARLINK-3767,1 52376U 22045AX  24232.39883173  .00001111  00000-0  87857-4 0  9994,2 52376  53.2161 215.7882 0001422  89.4877 270.6278 15.08842236130283,6917.874,95.437,540.722,538.755,0.0
52376.0,STARLINK-3767,PAYLOAD,2024-08-20 04:38:57,15.08835243,0.0001445,53.2163,212.2198,86.775,273.3407,8.3453e-05,1.04e-05,0.0,0 STARLINK-3767,1 52376U 22045AX  24233.19371867  .00001040  00000-0  83453-4 0  9994,2 52376  53.2163 212.2198 0001445  86.7750 273.3407 15.08835243130400,6917.895,95.438,540.76,538.76,0.0
52376.0,STARLINK-3767,PAYLOAD,2024-08-20 06:14:20,15.08837619,0.0001467,53.2164,211.9226,86.216,273.9,0.00010417,1.37e-05,0.0,0 STARLINK-3767,1 52376U 22045AX  24233.25995695  .00001370  00000-0  10417-3 0  9997,2 52376  53.2164 211.9226 0001467  86.2160 273.9000 15.08837619130418,6917.888,95.438,540.768,538.738,0.0
52376.0,STARLINK-3767,PAYLOAD,2024-08-21 07:40:30,15.08846659,0.0001457,53.2161,207.1641,86.1349,273.9809,8.5275e-05,1.07e-05,0.0,0 STARLINK-3767,1 52376U 22045AX  24234.31979227  .00001070  00000-0  85275-4 0  9990,2 52376  53.2161 207.1641 0001457  86.1349 273.9809 15.08846659130578,6917.86,95.437,540.733,538.717,0.0
